STARLINK-36875
1 68300U 26057G   26090.83335647 -.01375591  56054-3 -35854-2 0  9996
2 68300  97.2793 214.2097 0001412  75.9874 127.7401 15.95035794  2775
